[{"OBJECT_NAME":"STARLINK-3995","OBJECT_ID":"2022-052AL","EPOCH":"2026-03-09T17:15:46.594656","MEAN_MOTION":15.08835895,"ECCENTRICITY":0.00013966,"INCLINATION":53.217,"RA_OF_ASC_NODE":268.9887,"ARG_OF_PERICENTER":109.2059,"MEAN_ANOMALY":250.9085,"EPHEMERIS_TYPE":0,"CLASSIFICATION_TYPE":"U","NORAD_CAT_ID":52632,"ELEMENT_SET_NO":999,"REV_AT_EPOCH":21100,"BSTAR":-2.4462657e-5,"MEAN_MOTION_DOT":-6.77e-6,"MEAN_MOTION_DDOT":0},{"OBJECT_NAME":"NANOFF A","OBJECT_ID":"2023-185T","EPOCH":"2026-03-09T23:34:34.415328","MEAN_MOTION":15.11542977,"ECCENTRICITY":0.00086783,"INCLINATION":97.5359,"RA_OF_ASC_NODE":137.8345,"ARG_OF_PERICENTER":292.8968,"MEAN_ANOMALY":67.1346,"EPHEMERIS_TYPE":0,"CLASSIFICATION_TYPE":"U","NORAD_CAT_ID":58810,"ELEMENT_SET_NO":999,"REV_AT_EPOCH":11805,"BSTAR":0.00027314844,"MEAN_MOTION_DOT":4.57e-5,"MEAN_MOTION_DDOT":0}]
